[{"OBJECT_NAME":"CSG-2","OBJECT_ID":"2022-008A","EPOCH":"2026-03-09T23:30:39.658752","MEAN_MOTION":14.82158958,"ECCENTRICITY":0.00013321,"INCLINATION":97.8865,"RA_OF_ASC_NODE":254.0106,"ARG_OF_PERICENTER":78.3259,"MEAN_ANOMALY":281.8104,"EPHEMERIS_TYPE":0,"CLASSIFICATION_TYPE":"U","NORAD_CAT_ID":51444,"ELEMENT_SET_NO":999,"REV_AT_EPOCH":22189,"BSTAR":5.5111753e-5,"MEAN_MOTION_DOT":3.87e-6,"MEAN_MOTION_DDOT":0},{"OBJECT_NAME":"DELTA 1 DEB","OBJECT_ID":"1975-052KA","EPOCH":"2026-03-09T20:15:34.773408","MEAN_MOTION":14.82589712,"ECCENTRICITY":0.00569922,"INCLINATION":99.9509,"RA_OF_ASC_NODE":274.5557,"ARG_OF_PERICENTER":359.7984,"MEAN_ANOMALY":0.319,"EPHEMERIS_TYPE":0,"CLASSIFICATION_TYPE":"U","NORAD_CAT_ID":26036,"ELEMENT_SET_NO":999,"REV_AT_EPOCH":41975,"BSTAR":0.0026317618,"MEAN_MOTION_DOT":0.00021773,"MEAN_MOTION_DDOT":0}]
